{"type":"Feature","properties":{"scope":"fourth-ring-main-carriageway-interior","verified":true,"method":"OSM node-connected degree-two graph cycles; no synthetic links","nodeCount":425,"uniqueNodeCount":424,"nodeCountIncludesClosingPoint":true,"wayIds":[4822362,5168931,5168969,5168984,5168995,26404004,26404007,26679357,26679367,27054411,27081673,29171223,29171227,29171346,29171347,29171372,29179367,29179382,29201277,29258169,29258265,29292512,29292513,29315153,30042718,30547254,30547272,30596772,30596777,30878227,32594357,42367952,42719498,42719499,42719901,47577824,47577825,55885554,106996965,106996968,106996981,106996997,120495438,120495440,121651217,121988943,128690877,128690878,128690886,128690893,139822681,139822690,143803933,143803940,150899332,150899346,152587362,152637070,152637100,152637101,152637104,152637106,152637107,152637110,152637112,152637114,152637115,152637118,154526720,154526753,154526758,154526764,154526767,155236077,155236080,164928144,164928214,164928217,164930272,164930286,164931250,164931257,164939802,164939811,165628812,165628818,165628827,165628833,165628834,165628844,165628851,165628856,165628861,165628863,165628864,165628871,165628875,165628885,165628886,165630780,165630784,165638384,165638390,165638394,165638395,165638398,165638400,165638402,165638403,169067038,169067062,169204629,169204630,169612197,169612206,169612230,169612291,169612293,169612301,169612304,169612311,169612324,169612334,169612340,169612348,169616128,169616159,170628882,170628885,172431011,172431013,172431172,172431176,172431348,172431854,172431855,176442974,176442975,176576438,176576443,176576444,176576446,176576447,176576450,176576452,176576453,176576454,176576459,176579600,176579602,176582649,176583913,176585259,176585269,176585271,176585273,176590503,176590508,176590511,176590512,627475501,681798960,681798961,739539793,865466544,865466548,918613764,946163339,948410295,948410296,951423383,951423386,959663096,959663097,993655235,996878594,996878596,996878599,1071422817,1071422818,1077130598,1077130601,1077130602,1077130605,1077130606,1077130609,1077130610,1126504781,1197005499,1197005518,1197005524,1197005526,1197005530,1197005531,1268099024,1268099025,1292598918,1293572508,1297388265,1297388268,1303603154,1550467997],"carriageways":2,"bounds":[116.2681103,39.8293723,116.4836862,39.9877472]},"geometry":{"type":"Polygon","coordinates":[[[116.3641876,39.9859308],[116.3623718,39.9858829],[116.3575959,39.9857391],[116.35586,39.9856908],[116.352632,39.9855967],[116.3508531,39.9855326],[116.3479791,39.985453],[116.3467163,39.9854083],[116.3439853,39.9853012],[116.3418289,39.9852094],[116.3386877,39.9851479],[116.3357811,39.9850245],[116.3354479,39.9850103],[116.3307719,39.9847899],[116.3274996,39.9846361],[116.3267286,39.9846056],[116.3237604,39.9845018],[116.3230485,39.984479],[116.3213295,39.9844203],[116.3209012,39.9844101],[116.3207665,39.9844058],[116.3205901,39.9843996],[116.3186074,39.9843302],[116.3157564,39.9842514],[116.3147378,39.9842232],[116.3142529,39.9842098],[116.3137873,39.9841969],[116.3127067,39.9841589],[116.3120224,39.984141],[116.3106369,39.9841047],[116.3097665,39.9840702],[116.3056844,39.983928],[116.3050943,39.9839075],[116.3040629,39.9838898],[116.3000348,39.9837931],[116.2990848,39.9837741],[116.2979838,39.9837521],[116.2973189,39.9837309],[116.2951837,39.9836322],[116.2949664,39.9836222],[116.2948352,39.9836161],[116.2936802,39.9835573],[116.2928365,39.9834635],[116.2921622,39.9833445],[116.2914101,39.9831547],[116.2907153,39.9829466],[116.2898769,39.9826647],[116.288936,39.9822583],[116.2880527,39.9817809],[116.2864875,39.9806771],[116.2863262,39.9805253],[116.2836645,39.9778403],[116.2835325,39.9777071],[116.2833736,39.9775468],[116.2821321,39.9762944],[116.281837,39.9760324],[116.2810536,39.9753369],[116.2801944,39.974636],[116.2785995,39.9735585],[116.2772534,39.9727778],[116.2762577,39.9722838],[116.2747964,39.9715773],[116.2721666,39.9703457],[116.2711235,39.9697743],[116.2703209,39.9691405],[116.2700466,39.9688677],[116.2694853,39.968148],[116.2692258,39.9677658],[116.268952,39.9671925],[116.2688249,39.9667933],[116.2687218,39.9662325],[116.2686852,39.9656553],[116.2687218,39.965325],[116.269161,39.9613633],[116.2694177,39.9590277],[116.2696385,39.9570185],[116.2698359,39.9553775],[116.2698995,39.9548489],[116.2699693,39.9540474],[116.2699522,39.9532399],[116.2699034,39.9527222],[116.2697801,39.951953],[116.269697,39.9514411],[116.2693968,39.9497238],[116.2689529,39.9468613],[116.2686018,39.944176],[116.2683467,39.941276],[116.2683048,39.937503],[116.2683745,39.9359617],[116.2684343,39.935451],[116.2684604,39.9352292],[116.2686603,39.9335213],[116.2687286,39.9329377],[116.2688561,39.9319692],[116.2688978,39.9316123],[116.269154,39.9295989],[116.269209,39.9287895],[116.2693511,39.9266621],[116.2693721,39.9264459],[116.2694008,39.9254969],[116.2693912,39.9248112],[116.269309,39.9207768],[116.2692962,39.9201436],[116.2692676,39.9193644],[116.2692013,39.918004],[116.2690207,39.9163849],[116.2687705,39.9148458],[116.2685457,39.9134856],[116.2683188,39.9120608],[116.2681673,39.9097471],[116.2681692,39.9085962],[116.268144,39.9030505],[116.2681404,39.898355],[116.2681463,39.8971539],[116.2681559,39.8961696],[116.268155,39.8959609],[116.2681479,39.8942081],[116.2681429,39.8929764],[116.2681243,39.8901997],[116.2681103,39.8879813],[116.2681316,39.8875236],[116.2681692,39.8868702],[116.2682332,39.8860299],[116.2685007,39.8845118],[116.2686986,39.8837546],[116.2693561,39.8818195],[116.2702636,39.8793961],[116.2705105,39.8787622],[116.2707346,39.8781873],[116.2720621,39.874502],[116.2723656,39.8736948],[116.2727977,39.8725771],[116.2733285,39.8715283],[116.2748892,39.8691366],[116.2758611,39.8676472],[116.2766825,39.8664222],[116.2769489,39.8659198],[116.2771237,39.8654803],[116.2772654,39.8650904],[116.277389,39.8646227],[116.2774571,39.8639321],[116.277481,39.8634688],[116.2774612,39.8630961],[116.2773774,39.8622554],[116.2773205,39.8614703],[116.277207,39.8602045],[116.2770014,39.8579479],[116.2769842,39.8575047],[116.2770043,39.8569537],[116.2770507,39.8564489],[116.2770514,39.8564409],[116.277426,39.852438],[116.2775403,39.8507429],[116.2776701,39.8493669],[116.2776408,39.8482116],[116.2776685,39.8470104],[116.2778228,39.845154],[116.2779159,39.8439345],[116.2779845,39.8435374],[116.2780956,39.8432031],[116.2782793,39.8428135],[116.2784953,39.8424786],[116.2789533,39.8418958],[116.2793011,39.84142],[116.2794776,39.8411676],[116.2796706,39.8408489],[116.2798001,39.8406016],[116.279868,39.8404326],[116.2799583,39.8401932],[116.2800511,39.8399287],[116.2801365,39.83962],[116.2802142,39.8392545],[116.2803472,39.8386915],[116.280591,39.8375721],[116.2807715,39.8367335],[116.2809199,39.8360948],[116.2811092,39.8351251],[116.281324,39.8341933],[116.281343,39.834118],[116.2814238,39.833794],[116.2814997,39.8335382],[116.2817082,39.8329979],[116.2818522,39.832705],[116.2820446,39.832395],[116.2823323,39.8319837],[116.2825624,39.8316871],[116.2830659,39.8312191],[116.2835712,39.830799],[116.2843948,39.8302986],[116.2850693,39.8300064],[116.2857253,39.829772],[116.28633,39.8296322],[116.2865106,39.8295929],[116.2865227,39.8295913],[116.2873511,39.8294757],[116.2877809,39.829441],[116.2891191,39.8294236],[116.293645,39.8294298],[116.2945663,39.8294133],[116.2952941,39.8294002],[116.2961134,39.829382],[116.3021895,39.8293952],[116.3048956,39.8293738],[116.3079715,39.8293726],[116.3130316,39.8293723],[116.3161635,39.8293749],[116.3189582,39.8293838],[116.3193915,39.8293852],[116.3229152,39.8293845],[116.326547,39.8294131],[116.3277888,39.8294169],[116.329226,39.8294367],[116.3338623,39.8295865],[116.3348314,39.8296367],[116.3371238,39.8297535],[116.3386167,39.8297819],[116.3401138,39.8298119],[116.3417772,39.8298148],[116.3426143,39.8298163],[116.3455732,39.8298133],[116.346358,39.829808],[116.3502504,39.8298351],[116.3558827,39.8298219],[116.3577403,39.8298449],[116.358972,39.8298748],[116.3620232,39.829927],[116.3656961,39.8300262],[116.3684034,39.8301035],[116.3694056,39.8301327],[116.3728572,39.8302309],[116.3730678,39.8302363],[116.3768087,39.8303659],[116.3803396,39.8304368],[116.3813929,39.8304848],[116.3856133,39.8305971],[116.3885995,39.8306868],[116.3924623,39.8307993],[116.3987812,39.8309332],[116.4005568,39.8309672],[116.4052829,39.8309713],[116.4089156,39.8309473],[116.4095165,39.8309535],[116.4119202,39.8309851],[116.414727,39.8309623],[116.4190739,39.830949],[116.4230313,39.8309586],[116.4234516,39.8309595],[116.423706,39.8309586],[116.4268173,39.8309475],[116.4273936,39.8309452],[116.4302263,39.8309378],[116.4357842,39.8309377],[116.4365785,39.8309442],[116.4396662,39.830935],[116.4430014,39.8309376],[116.4442031,39.8310036],[116.4462925,39.8312727],[116.4499975,39.8316928],[116.4525293,39.8319798],[116.453127,39.8320399],[116.4567484,39.8325259],[116.4577753,39.8327158],[116.4587501,39.8329751],[116.4595665,39.8332473],[116.4604137,39.8335569],[116.4613776,39.8340147],[116.4622121,39.8344898],[116.4633974,39.8351959],[116.4658383,39.8367818],[116.4669483,39.8374928],[116.4684562,39.8384851],[116.4720789,39.840854],[116.4725131,39.8411379],[116.4730243,39.8414721],[116.4737534,39.8419489],[116.4744022,39.8424054],[116.475134,39.8429661],[116.475923,39.8436213],[116.4763178,39.8439902],[116.4764759,39.8441405],[116.4775095,39.8453233],[116.4780433,39.8460932],[116.4784704,39.8468615],[116.4788133,39.8476597],[116.4791517,39.8487252],[116.4793024,39.849339],[116.4796188,39.8509959],[116.4800707,39.8538096],[116.4802165,39.8547169],[116.4803328,39.8554411],[116.4811854,39.8614054],[116.4816268,39.8634328],[116.4816516,39.8635849],[116.482033,39.8659273],[116.482182,39.8669565],[116.4823068,39.8678181],[116.4823288,39.8679699],[116.4823706,39.868254],[116.4824317,39.868772],[116.4829379,39.871799],[116.4829938,39.8721518],[116.4830515,39.8724532],[116.4831523,39.8731437],[116.4833036,39.8742307],[116.4835214,39.8756597],[116.4835768,39.8765735],[116.48362,39.8776873],[116.4836295,39.8813616],[116.4836301,39.8816017],[116.4836312,39.8820466],[116.483633,39.882798],[116.4836086,39.8838635],[116.4835993,39.8852853],[116.4835745,39.8863187],[116.4836252,39.887173],[116.4835721,39.8901599],[116.4836075,39.8957164],[116.4835998,39.9027733],[116.4835982,39.9047615],[116.483591,39.9049881],[116.4835352,39.9065599],[116.4835523,39.9071492],[116.48362,39.9088023],[116.4836253,39.9090118],[116.4836204,39.9112449],[116.48363,39.9151274],[116.4836035,39.9178427],[116.4836419,39.9211723],[116.4836609,39.9222305],[116.4836243,39.9249216],[116.483646,39.9270554],[116.4836576,39.9286438],[116.4836383,39.9296596],[116.4836779,39.9313289],[116.4836744,39.9315846],[116.4836746,39.9319733],[116.48367,39.9329154],[116.4836697,39.9333047],[116.4836682,39.9335498],[116.483672,39.9373913],[116.4836737,39.9399036],[116.483686,39.94369],[116.4836862,39.9439169],[116.4836773,39.9486393],[116.4836638,39.9492074],[116.483637,39.9495389],[116.4835581,39.9505933],[116.4834242,39.951538],[116.4832155,39.9524521],[116.4829604,39.9533785],[116.4828203,39.9538388],[116.4824723,39.9546843],[116.4821582,39.9553089],[116.4818476,39.9558725],[116.4814405,39.9565217],[116.4810837,39.9569884],[116.4808174,39.9573385],[116.4802465,39.9580253],[116.4800745,39.9582142],[116.4792638,39.9590064],[116.4783496,39.9598104],[116.4772231,39.9606822],[116.4768167,39.9609918],[116.4750624,39.9621913],[116.472304,39.9639862],[116.4688949,39.9662384],[116.4679631,39.9668485],[116.4673372,39.9672614],[116.4661243,39.9680277],[116.4637931,39.9695701],[116.4635507,39.9697244],[116.4619131,39.9708154],[116.4614718,39.9711045],[116.4607322,39.9715889],[116.4582888,39.9731871],[116.4581358,39.9732944],[116.4545021,39.9757024],[116.4493926,39.9790058],[116.4482328,39.9797782],[116.4441149,39.982464],[116.4425205,39.9835043],[116.4421056,39.983775],[116.4416847,39.9840231],[116.4411642,39.9842722],[116.4403984,39.9846121],[116.4369552,39.9859447],[116.4357232,39.9864214],[116.4348324,39.9867662],[116.4334295,39.987237],[116.4325646,39.9874687],[116.4318676,39.987589],[116.4310997,39.9876907],[116.4304464,39.9877454],[116.4295304,39.9877472],[116.4289147,39.9877395],[116.4270496,39.9876792],[116.4234795,39.9875763],[116.4186384,39.9874324],[116.4170842,39.9874056],[116.4130564,39.9872842],[116.4091793,39.9871673],[116.4060821,39.987074],[116.4040694,39.9870136],[116.4025048,39.9869861],[116.402378,39.9869819],[116.4002396,39.9869012],[116.4001145,39.986898],[116.3973232,39.9868085],[116.3963486,39.9867677],[116.3910996,39.9866604],[116.3882189,39.9865752],[116.3878111,39.9865632],[116.3874705,39.9865531],[116.3871261,39.9865435],[116.3829194,39.9864312],[116.3815287,39.9863804],[116.3811602,39.9863733],[116.3781193,39.986299],[116.372862,39.9861565],[116.3715821,39.9861191],[116.3703753,39.9860603],[116.3666359,39.9859803],[116.3660573,39.9859732],[116.3656169,39.9859629],[116.3641876,39.9859308]]]}}